{
  "type": "FeatureCollection",
  "features": [
    {
      "type": "Feature",
      "properties": {
        "norad_id": 35052,
        "name": "IRIDIUM 33 DEB",
        "group": "iridium-33-debris",
        "lat": 82.3447129042595,
        "lon": 172.61997253200994,
        "alt_km": 746.4159897460049,
        "timestamp": "2025-12-11T05:00:26.693615+00:00",
        "meta_object_name": "IRIDIUM 33 DEB",
        "meta_object_id": "1997-051NY",
        "meta_epoch": "2025-12-10T20:12:46.550016",
        "meta_mean_motion": 14.38488803,
        "meta_eccentricity": 0.00136918,
        "meta_inclination": 86.3312,
        "meta_ra_of_asc_node": 21.2899,
        "meta_arg_of_pericenter": 90.3566,
        "meta_mean_anomaly": 269.9201,
        "meta_ephemeris_type": 0,
        "meta_classification_type": "U",
        "meta_norad_cat_id": 35052,
        "meta_element_set_no": 999,
        "meta_rev_at_epoch": 87248,
        "meta_bstar": 0.00026896696,
        "meta_mean_motion_dot": 8.42e-06,
        "meta_mean_motion_ddot": 0,
        "tle_line1": "1 35052U 97051NY  25344.84220544  .00000842  00000+0  26897-3 0  9992",
        "tle_line2": "2 35052  86.3312  21.2899 0013691  90.3566 269.9201 14.38488803872485"
      },
      "geometry": {
        "type": "Point",
        "coordinates": [
          172.61997253200994,
          82.3447129042595
        ]
      }
    },
    {
      "type": "Feature",
      "properties": {
        "norad_id": 35080,
        "name": "IRIDIUM 33 DEB",
        "group": "iridium-33-debris",
        "lat": 10.22322817257248,
        "lon": 53.792892519420896,
        "alt_km": 655.4166989249088,
        "timestamp": "2025-12-11T05:00:26.693625+00:00",
        "meta_object_name": "IRIDIUM 33 DEB",
        "meta_object_id": "1997-051PF",
        "meta_epoch": "2025-12-10T22:29:41.831808",
        "meta_mean_motion": 14.85676849,
        "meta_eccentricity": 0.00609943,
        "meta_inclination": 86.2065,
        "meta_ra_of_asc_node": 53.2369,
        "meta_arg_of_pericenter": 185.895,
        "meta_mean_anomaly": 174.1564,
        "meta_ephemeris_type": 0,
        "meta_classification_type": "U",
        "meta_norad_cat_id": 35080,
        "meta_element_set_no": 999,
        "meta_rev_at_epoch": 69661,
        "meta_bstar": 0.010957999,
        "meta_mean_motion_dot": 0.00099464,
        "meta_mean_motion_ddot": 0,
        "tle_line1": "1 35080U 97051PF  25344.93728972  .00099464  00000+0  10958-1 0  9998",
        "tle_line2": "2 35080  86.2065  53.2369 0060994 185.8950 174.1564 14.85676849696611"
      },
      "geometry": {
        "type": "Point",
        "coordinates": [
          53.792892519420896,
          10.22322817257248
        ]
      }
    },
    {
      "type": "Feature",
      "properties": {
        "norad_id": 35297,
        "name": "IRIDIUM 33 DEB",
        "group": "iridium-33-debris",
        "lat": -33.03179172150517,
        "lon": 61.05945509711135,
        "alt_km": 759.8610482094628,
        "timestamp": "2025-12-11T05:00:26.693635+00:00",
        "meta_object_name": "IRIDIUM 33 DEB",
        "meta_object_id": "1997-051PM",
        "meta_epoch": "2025-12-06T00:31:29.302752",
        "meta_mean_motion": 14.45108459,
        "meta_eccentricity": 0.00170329,
        "meta_inclination": 86.3867,
        "meta_ra_of_asc_node": 65.6268,
        "meta_arg_of_pericenter": 161.2449,
        "meta_mean_anomaly": 198.9384,
        "meta_ephemeris_type": 0,
        "meta_classification_type": "U",
        "meta_norad_cat_id": 35297,
        "meta_element_set_no": 999,
        "meta_rev_at_epoch": 70329,
        "meta_bstar": 0.0012426888,
        "meta_mean_motion_dot": 4.371e-05,
        "meta_mean_motion_ddot": 0,
        "tle_line1": "1 35297U 97051PM  25340.02186693  .00004371  00000+0  12427-2 0  9999",
        "tle_line2": "2 35297  86.3867  65.6268 0017032 161.2449 198.9384 14.45108459703293"
      },
      "geometry": {
        "type": "Point",
        "coordinates": [
          61.05945509711135,
          -33.03179172150517
        ]
      }
    },
    {
      "type": "Feature",
      "properties": {
        "norad_id": 35299,
        "name": "IRIDIUM 33 DEB",
        "group": "iridium-33-debris",
        "lat": -76.06168157376155,
        "lon": 18.690239817122404,
        "alt_km": 805.0846214367812,
        "timestamp": "2025-12-11T05:00:26.693645+00:00",
        "meta_object_name": "IRIDIUM 33 DEB",
        "meta_object_id": "1997-051PP",
        "meta_epoch": "2025-12-10T21:51:11.079360",
        "meta_mean_motion": 14.40845686,
        "meta_eccentricity": 0.00589426,
        "meta_inclination": 86.2883,
        "meta_ra_of_asc_node": 33.9824,
        "meta_arg_of_pericenter": 108.2071,
        "meta_mean_anomaly": 69.9595,
        "meta_ephemeris_type": 0,
        "meta_classification_type": "U",
        "meta_norad_cat_id": 35299,
        "meta_element_set_no": 999,
        "meta_rev_at_epoch": 86304,
        "meta_bstar": 0.0011417555,
        "meta_mean_motion_dot": 3.753e-05,
        "meta_mean_motion_ddot": 0,
        "tle_line1": "1 35299U 97051PP  25344.91054490  .00003753  00000+0  11418-2 0  9994",
        "tle_line2": "2 35299  86.2883  33.9824 0058942 108.2071  69.9595 14.40845686863041"
      },
      "geometry": {
        "type": "Point",
        "coordinates": [
          18.690239817122404,
          -76.06168157376155
        ]
      }
    },
    {
      "type": "Feature",
      "properties": {
        "norad_id": 35480,
        "name": "IRIDIUM 33 DEB",
        "group": "iridium-33-debris",
        "lat": -25.60975730208456,
        "lon": 23.826208208035254,
        "alt_km": 740.0671665252157,
        "timestamp": "2025-12-11T05:00:26.693655+00:00",
        "meta_object_name": "IRIDIUM 33 DEB",
        "meta_object_id": "1997-051QA",
        "meta_epoch": "2025-12-09T19:59:43.135296",
        "meta_mean_motion": 14.49744632,
        "meta_eccentricity": 0.00159269,
        "meta_inclination": 86.357,
        "meta_ra_of_asc_node": 26.1722,
        "meta_arg_of_pericenter": 113.2937,
        "meta_mean_anomaly": 246.9945,
        "meta_ephemeris_type": 0,
        "meta_classification_type": "U",
        "meta_norad_cat_id": 35480,
        "meta_element_set_no": 999,
        "meta_rev_at_epoch": 86989,
        "meta_bstar": 0.0009193458,
        "meta_mean_motion_dot": 3.565e-05,
        "meta_mean_motion_ddot": 0,
        "tle_line1": "1 35480U 97051QA  25343.83313814  .00003565  00000+0  91935-3 0  9998",
        "tle_line2": "2 35480  86.3570  26.1722 0015926 113.2937 246.9945 14.49744632869893"
      },
      "geometry": {
        "type": "Point",
        "coordinates": [
          23.826208208035254,
          -25.60975730208456
        ]
      }
    },
    {
      "type": "Feature",
      "properties": {
        "norad_id": 35484,
        "name": "IRIDIUM 33 DEB",
        "group": "iridium-33-debris",
        "lat": -51.01273649124023,
        "lon": 177.97136426129916,
        "alt_km": 581.8575045038469,
        "timestamp": "2025-12-11T05:00:26.693665+00:00",
        "meta_object_name": "IRIDIUM 33 DEB",
        "meta_object_id": "1997-051QE",
        "meta_epoch": "2025-12-09T18:19:22.021248",
        "meta_mean_motion": 14.98336228,
        "meta_eccentricity": 0.00232979,
        "meta_inclination": 86.3609,
        "meta_ra_of_asc_node": 354.1372,
        "meta_arg_of_pericenter": 134.8315,
        "meta_mean_anomaly": 225.4815,
        "meta_ephemeris_type": 0,
        "meta_classification_type": "U",
        "meta_norad_cat_id": 35484,
        "meta_element_set_no": 999,
        "meta_rev_at_epoch": 61971,
        "meta_bstar": 0.0036943713,
        "meta_mean_motion_dot": 0.00044475,
        "meta_mean_motion_ddot": 0,
        "tle_line1": "1 35484U 97051QE  25343.76344932  .00044475  00000+0  36944-2 0  9992",
        "tle_line2": "2 35484  86.3609 354.1372 0023297 134.8315 225.4815 14.98336228619718"
      },
      "geometry": {
        "type": "Point",
        "coordinates": [
          177.97136426129916,
          -51.01273649124023
        ]
      }
    },
    {
      "type": "Feature",
      "properties": {
        "norad_id": 35488,
        "name": "IRIDIUM 33 DEB",
        "group": "iridium-33-debris",
        "lat": 65.560486796378,
        "lon": -50.284535145500406,
        "alt_km": 593.5822070035019,
        "timestamp": "2025-12-11T05:00:26.693674+00:00",
        "meta_object_name": "IRIDIUM 33 DEB",
        "meta_object_id": "1997-051QJ",
        "meta_epoch": "2025-12-10T07:39:38.233728",
        "meta_mean_motion": 14.82954928,
        "meta_eccentricity": 0.00301497,
        "meta_inclination": 86.3246,
        "meta_ra_of_asc_node": 301.994,
        "meta_arg_of_pericenter": 50.6144,
        "meta_mean_anomaly": 309.7742,
        "meta_ephemeris_type": 0,
        "meta_classification_type": "U",
        "meta_norad_cat_id": 35488,
        "meta_element_set_no": 999,
        "meta_rev_at_epoch": 88230,
        "meta_bstar": 0.0023681949,
        "meta_mean_motion_dot": 0.0001943,
        "meta_mean_motion_ddot": 0,
        "tle_line1": "1 35488U 97051QJ  25344.31919252  .00019430  00000+0  23682-2 0  9999",
        "tle_line2": "2 35488  86.3246 301.9940 0030149  50.6144 309.7742 14.82954928882307"
      },
      "geometry": {
        "type": "Point",
        "coordinates": [
          -50.284535145500406,
          65.560486796378
        ]
      }
    }
  ]
}